STARLINK-6311           
1 56537U 23065AL  26068.49269522  .00000371  00000+0  42514-4 0  9993
2 56537  43.0010 224.5536 0001123 261.3732  98.6983 15.02537066156442
2024-205C               
1 61896U 24205C   26067.20867002  .00012247  00000+0  67177-3 0  9995
2 61896  97.4204 141.0161 0044383 341.9375  18.0277 15.13448144 72971
